[{"OBJECT_NAME":"STARLINK-36810","OBJECT_ID":"2026-035V","EPOCH":"2026-03-03T14:00:03.000384","MEAN_MOTION":16.02088062,"ECCENTRICITY":0.0001414,"INCLINATION":97.2756,"RA_OF_ASC_NODE":354.4581,"ARG_OF_PERICENTER":104.7313,"MEAN_ANOMALY":36.1055,"EPHEMERIS_TYPE":0,"CLASSIFICATION_TYPE":"U","NORAD_CAT_ID":67898,"ELEMENT_SET_NO":999,"REV_AT_EPOCH":277,"BSTAR":-0.0018187,"MEAN_MOTION_DOT":-0.01035164,"MEAN_MOTION_DDOT":0.00035786},{"OBJECT_NAME":"STARLINK-36878","OBJECT_ID":"2026-035W","EPOCH":"2026-03-03T14:00:03.000384","MEAN_MOTION":16.02295648,"ECCENTRICITY":0.0001204,"INCLINATION":97.2753,"RA_OF_ASC_NODE":354.461,"ARG_OF_PERICENTER":81.2545,"MEAN_ANOMALY":66.2,"EPHEMERIS_TYPE":0,"CLASSIFICATION_TYPE":"U","NORAD_CAT_ID":67899,"ELEMENT_SET_NO":999,"REV_AT_EPOCH":277,"BSTAR":-0.001814,"MEAN_MOTION_DOT":-0.01044909,"MEAN_MOTION_DDOT":0.000365},{"OBJECT_NAME":"STARLINK-36361","OBJECT_ID":"2026-035X","EPOCH":"2026-03-03T14:00:03.000384","MEAN_MOTION":16.02394845,"ECCENTRICITY":0.0001164,"INCLINATION":97.2753,"RA_OF_ASC_NODE":354.4625,"ARG_OF_PERICENTER":79.3531,"MEAN_ANOMALY":71.7281,"EPHEMERIS_TYPE":0,"CLASSIFICATION_TYPE":"U","NORAD_CAT_ID":67900,"ELEMENT_SET_NO":999,"REV_AT_EPOCH":277,"BSTAR":-0.0017849,"MEAN_MOTION_DOT":-0.01034176,"MEAN_MOTION_DDOT":0.0003585},{"OBJECT_NAME":"STARLINK-36336","OBJECT_ID":"2026-035Y","EPOCH":"2026-03-03T14:00:03.000384","MEAN_MOTION":16.02741017,"ECCENTRICITY":0.0001307,"INCLINATION":97.2756,"RA_OF_ASC_NODE":354.4675,"ARG_OF_PERICENTER":114.1337,"MEAN_ANOMALY":47.927,"EPHEMERIS_TYPE":0,"CLASSIFICATION_TYPE":"U","NORAD_CAT_ID":67901,"ELEMENT_SET_NO":999,"REV_AT_EPOCH":282,"BSTAR":-0.0017695,"MEAN_MOTION_DOT":-0.01046129,"MEAN_MOTION_DDOT":0.00036768},{"OBJECT_NAME":"STARLINK-36876","OBJECT_ID":"2026-035Z","EPOCH":"2026-03-03T14:00:03.000384","MEAN_MOTION":16.02501466,"ECCENTRICITY":0.000148,"INCLINATION":97.2758,"RA_OF_ASC_NODE":354.4647,"ARG_OF_PERICENTER":110.0559,"MEAN_ANOMALY":44.1868,"EPHEMERIS_TYPE":0,"CLASSIFICATION_TYPE":"U","NORAD_CAT_ID":67902,"ELEMENT_SET_NO":999,"REV_AT_EPOCH":277,"BSTAR":-0.0017898,"MEAN_MOTION_DOT":-0.01043478,"MEAN_MOTION_DDOT":0.00036494},{"OBJECT_NAME":"STARLINK-36257","OBJECT_ID":"2026-035AA","EPOCH":"2026-03-03T14:00:03.000384","MEAN_MOTION":16.02611015,"ECCENTRICITY":0.0001297,"INCLINATION":97.2754,"RA_OF_ASC_NODE":354.4651,"ARG_OF_PERICENTER":96.7311,"MEAN_ANOMALY":60.8311,"EPHEMERIS_TYPE":0,"CLASSIFICATION_TYPE":"U","NORAD_CAT_ID":67903,"ELEMENT_SET_NO":999,"REV_AT_EPOCH":282,"BSTAR":-0.0017863,"MEAN_MOTION_DOT":-0.0104806,"MEAN_MOTION_DDOT":0.00036838},{"OBJECT_NAME":"STARLINK-36814","OBJECT_ID":"2026-036A","EPOCH":"2026-03-03T14:00:03.000384","MEAN_MOTION":15.81874735,"ECCENTRICITY":0.0002588,"INCLINATION":42.9944,"RA_OF_ASC_NODE":287.2332,"ARG_OF_PERICENTER":257.8558,"MEAN_ANOMALY":76.1996,"EPHEMERIS_TYPE":0,"CLASSIFICATION_TYPE":"U","NORAD_CAT_ID":67904,"ELEMENT_SET_NO":999,"REV_AT_EPOCH":266,"BSTAR":0.0012604,"MEAN_MOTION_DOT":0.00271573,"MEAN_MOTION_DDOT":0},{"OBJECT_NAME":"STARLINK-36729","OBJECT_ID":"2026-036B","EPOCH":"2026-03-03T14:00:03.000384","MEAN_MOTION":15.82031824,"ECCENTRICITY":0.0002197,"INCLINATION":42.994,"RA_OF_ASC_NODE":287.2218,"ARG_OF_PERICENTER":267.0365,"MEAN_ANOMALY":71.2388,"EPHEMERIS_TYPE":0,"CLASSIFICATION_TYPE":"U","NORAD_CAT_ID":67905,"ELEMENT_SET_NO":999,"REV_AT_EPOCH":266,"BSTAR":-2.7692e-5,"MEAN_MOTION_DOT":-6.365e-5,"MEAN_MOTION_DDOT":0},{"OBJECT_NAME":"STARLINK-36763","OBJECT_ID":"2026-036C","EPOCH":"2026-03-03T14:00:03.000384","MEAN_MOTION":15.8223711,"ECCENTRICITY":0.0001602,"INCLINATION":42.994,"RA_OF_ASC_NODE":287.2113,"ARG_OF_PERICENTER":268.6022,"MEAN_ANOMALY":73.8501,"EPHEMERIS_TYPE":0,"CLASSIFICATION_TYPE":"U","NORAD_CAT_ID":67906,"ELEMENT_SET_NO":999,"REV_AT_EPOCH":266,"BSTAR":-0.0015544,"MEAN_MOTION_DOT":-0.00319381,"MEAN_MOTION_DDOT":0},{"OBJECT_NAME":"STARLINK-36742","OBJECT_ID":"2026-036D","EPOCH":"2026-03-03T14:00:03.000384","MEAN_MOTION":15.82545523,"ECCENTRICITY":0.000234,"INCLINATION":42.9941,"RA_OF_ASC_NODE":287.201,"ARG_OF_PERICENTER":252.6007,"MEAN_ANOMALY":93.9506,"EPHEMERIS_TYPE":0,"CLASSIFICATION_TYPE":"U","NORAD_CAT_ID":67907,"ELEMENT_SET_NO":999,"REV_AT_EPOCH":266,"BSTAR":-0.0040453,"MEAN_MOTION_DOT":-0.00797969,"MEAN_MOTION_DDOT":0},{"OBJECT_NAME":"STARLINK-36827","OBJECT_ID":"2026-036E","EPOCH":"2026-03-03T14:00:03.000384","MEAN_MOTION":15.82780264,"ECCENTRICITY":0.0001889,"INCLINATION":42.9942,"RA_OF_ASC_NODE":287.1905,"ARG_OF_PERICENTER":261.1311,"MEAN_ANOMALY":89.5316,"EPHEMERIS_TYPE":0,"CLASSIFICATION_TYPE":"U","NORAD_CAT_ID":67908,"ELEMENT_SET_NO":999,"REV_AT_EPOCH":266,"BSTAR":-0.0051334,"MEAN_MOTION_DOT":-0.00999604,"MEAN_MOTION_DDOT":0},{"OBJECT_NAME":"STARLINK-36822","OBJECT_ID":"2026-036F","EPOCH":"2026-03-03T14:00:03.000384","MEAN_MOTION":15.83056559,"ECCENTRICITY":0.0001886,"INCLINATION":42.9943,"RA_OF_ASC_NODE":287.1809,"ARG_OF_PERICENTER":255.3444,"MEAN_ANOMALY":99.3643,"EPHEMERIS_TYPE":0,"CLASSIFICATION_TYPE":"U","NORAD_CAT_ID":67909,"ELEMENT_SET_NO":999,"REV_AT_EPOCH":266,"BSTAR":-0.0064399,"MEAN_MOTION_DOT":-0.01259682,"MEAN_MOTION_DDOT":0},{"OBJECT_NAME":"STARLINK-36847","OBJECT_ID":"2026-036G","EPOCH":"2026-03-03T14:00:03.000384","MEAN_MOTION":15.83322638,"ECCENTRICITY":0.000189,"INCLINATION":42.9943,"RA_OF_ASC_NODE":287.1704,"ARG_OF_PERICENTER":262.8599,"MEAN_ANOMALY":95.8721,"EPHEMERIS_TYPE":0,"CLASSIFICATION_TYPE":"U","NORAD_CAT_ID":67910,"ELEMENT_SET_NO":999,"REV_AT_EPOCH":266,"BSTAR":-0.0075153,"MEAN_MOTION_DOT":-0.01488097,"MEAN_MOTION_DDOT":0},{"OBJECT_NAME":"STARLINK-36736","OBJECT_ID":"2026-036H","EPOCH":"2026-03-03T14:00:03.000384","MEAN_MOTION":15.83523319,"ECCENTRICITY":0.0001692,"INCLINATION":42.9941,"RA_OF_ASC_NODE":287.1602,"ARG_OF_PERICENTER":264.1067,"MEAN_ANOMALY":98.6323,"EPHEMERIS_TYPE":0,"CLASSIFICATION_TYPE":"U","NORAD_CAT_ID":67911,"ELEMENT_SET_NO":999,"REV_AT_EPOCH":266,"BSTAR":-0.0077285,"MEAN_MOTION_DOT":-0.0153806,"MEAN_MOTION_DDOT":0},{"OBJECT_NAME":"STARLINK-36676","OBJECT_ID":"2026-036J","EPOCH":"2026-03-03T14:00:03.000384","MEAN_MOTION":15.83753852,"ECCENTRICITY":0.0001816,"INCLINATION":42.9943,"RA_OF_ASC_NODE":287.1504,"ARG_OF_PERICENTER":268.2202,"MEAN_ANOMALY":98.4473,"EPHEMERIS_TYPE":0,"CLASSIFICATION_TYPE":"U","NORAD_CAT_ID":67912,"ELEMENT_SET_NO":999,"REV_AT_EPOCH":266,"BSTAR":-0.0079815,"MEAN_MOTION_DOT":-0.01597622,"MEAN_MOTION_DDOT":0},{"OBJECT_NAME":"STARLINK-36690","OBJECT_ID":"2026-036K","EPOCH":"2026-03-03T14:00:03.000384","MEAN_MOTION":15.83890184,"ECCENTRICITY":0.0001792,"INCLINATION":42.9944,"RA_OF_ASC_NODE":287.1405,"ARG_OF_PERICENTER":260.2115,"MEAN_ANOMALY":110.4596,"EPHEMERIS_TYPE":0,"CLASSIFICATION_TYPE":"U","NORAD_CAT_ID":67913,"ELEMENT_SET_NO":999,"REV_AT_EPOCH":266,"BSTAR":-0.0078046,"MEAN_MOTION_DOT":-0.01575656,"MEAN_MOTION_DDOT":0}]
