STARLINK-36810          
1 67898U 26035V   26062.58336806 -.01035164  35786-3 -18187-2 0  9990
2 67898  97.2756 354.4581 0001414 104.7313  36.1055 16.02088062  2774
STARLINK-36878          
1 67899U 26035W   26062.58336806 -.01044909  36500-3 -18140-2 0  9992
2 67899  97.2753 354.4610 0001204  81.2545  66.2000 16.02295648  2772
STARLINK-36361          
1 67900U 26035X   26062.58336806 -.01034176  35850-3 -17849-2 0  9992
2 67900  97.2753 354.4625 0001164  79.3531  71.7281 16.02394845  2770
STARLINK-36336          
1 67901U 26035Y   26062.58336806 -.01046129  36768-3 -17695-2 0  9992
2 67901  97.2756 354.4675 0001307 114.1337  47.9270 16.02741017  2826
STARLINK-36876          
1 67902U 26035Z   26062.58336806 -.01043478  36494-3 -17898-2 0  9998
2 67902  97.2758 354.4647 0001480 110.0559  44.1868 16.02501466  2779
STARLINK-36257          
1 67903U 26035AA  26062.58336806 -.01048060  36838-3 -17863-2 0  9995
2 67903  97.2754 354.4651 0001297  96.7311  60.8311 16.02611015  2829
STARLINK-36814          
1 67904U 26036A   26062.58336806  .00271573  00000+0  12604-2 0  9997
2 67904  42.9944 287.2332 0002588 257.8558  76.1996 15.81874735  2661
STARLINK-36729          
1 67905U 26036B   26062.58336806 -.00006365  00000+0 -27692-4 0  9990
2 67905  42.9940 287.2218 0002197 267.0365  71.2388 15.82031824  2662
STARLINK-36763          
1 67906U 26036C   26062.58336806 -.00319381  00000+0 -15544-2 0  9997
2 67906  42.9940 287.2113 0001602 268.6022  73.8501 15.82237110  2665
STARLINK-36742          
1 67907U 26036D   26062.58336806 -.00797969  00000+0 -40453-2 0  9997
2 67907  42.9941 287.2010 0002340 252.6007  93.9506 15.82545523  2667
STARLINK-36827          
1 67908U 26036E   26062.58336806 -.00999604  00000+0 -51334-2 0  9998
2 67908  42.9942 287.1905 0001889 261.1311  89.5316 15.82780264  2664
STARLINK-36822          
1 67909U 26036F   26062.58336806 -.01259682  00000+0 -64399-2 0  9990
2 67909  42.9943 287.1809 0001886 255.3444  99.3643 15.83056559  2664
STARLINK-36847          
1 67910U 26036G   26062.58336806 -.01488097  00000+0 -75153-2 0  9996
2 67910  42.9943 287.1704 0001890 262.8599  95.8721 15.83322638  2661
STARLINK-36736          
1 67911U 26036H   26062.58336806 -.01538060  00000+0 -77285-2 0  9991
2 67911  42.9941 287.1602 0001692 264.1067  98.6323 15.83523319  2660
STARLINK-36676          
1 67912U 26036J   26062.58336806 -.01597622  00000+0 -79815-2 0  9992
2 67912  42.9943 287.1504 0001816 268.2202  98.4473 15.83753852  2669
STARLINK-36690          
1 67913U 26036K   26062.58336806 -.01575656  00000+0 -78046-2 0  9991
2 67913  42.9944 287.1405 0001792 260.2115 110.4596 15.83890184  2660
